[{"OBJECT_NAME":"STARLINK-31622","OBJECT_ID":"2024-068B","EPOCH":"2026-03-09T21:47:27.244608","MEAN_MOTION":15.2756356,"ECCENTRICITY":7.269e-5,"INCLINATION":42.9976,"RA_OF_ASC_NODE":33.4981,"ARG_OF_PERICENTER":257.1263,"MEAN_ANOMALY":102.9507,"EPHEMERIS_TYPE":0,"CLASSIFICATION_TYPE":"U","NORAD_CAT_ID":59456,"ELEMENT_SET_NO":999,"REV_AT_EPOCH":10855,"BSTAR":0.00029825158,"MEAN_MOTION_DOT":7.95e-5,"MEAN_MOTION_DDOT":0},{"OBJECT_NAME":"OTTER","OBJECT_ID":"2025-009Q","EPOCH":"2026-03-09T17:21:07.902432","MEAN_MOTION":15.27809545,"ECCENTRICITY":0.00035728,"INCLINATION":97.4065,"RA_OF_ASC_NODE":151.3812,"ARG_OF_PERICENTER":310.771,"MEAN_ANOMALY":49.3219,"EPHEMERIS_TYPE":0,"CLASSIFICATION_TYPE":"U","NORAD_CAT_ID":62623,"ELEMENT_SET_NO":999,"REV_AT_EPOCH":6372,"BSTAR":0.00045151206,"MEAN_MOTION_DOT":0.00012198,"MEAN_MOTION_DDOT":0}]
